{
  "norad_id": 63559,
  "name": "STARLINK-11606 [DTC]",
  "history": [
    {
      "epoch": "2026-03-28T21:33:33.221952Z",
      "apogee_km": 357.3208118326356,
      "perigee_km": 355.0106766192557,
      "latitude_deg": 5.970167807964392e-05,
      "longitude_deg": -112.04490310691511,
      "height_km": 356.2437012116733,
      "semi_major_axis_km": 6734.302744225945,
      "eccentricity": 0.00017152,
      "inclination_deg": 42.9993,
      "raan_deg": 37.6556,
      "arg_perigee_deg": 254.6664,
      "mean_anomaly_deg": 105.4015,
      "mean_motion_rev_day": 15.70955226
    },
    {
      "epoch": "2026-03-29T03:39:48.132288Z",
      "apogee_km": 357.0877874274938,
      "perigee_km": 355.48903483489084,
      "latitude_deg": 2.1373566919040806e-05,
      "longitude_deg": 154.60894146407483,
      "height_km": 356.2763482580799,
      "semi_major_axis_km": 6734.425411131192,
      "eccentricity": 0.0001187,
      "inclination_deg": 43.0001,
      "raan_deg": 36.1223,
      "arg_perigee_deg": 254.3427,
      "mean_anomaly_deg": 105.731,
      "mean_motion_rev_day": 15.70912304
    },
    {
      "epoch": "2026-03-30T02:33:12.167712Z",
      "apogee_km": 357.69584571878295,
      "perigee_km": 355.2027018802228,
      "latitude_deg": -4.650966260212641e-05,
      "longitude_deg": 164.56976273004537,
      "height_km": 357.08293551593596,
      "semi_major_axis_km": 6734.586273799503,
      "eccentricity": 0.0001851,
      "inclination_deg": 43.0,
      "raan_deg": 30.3734,
      "arg_perigee_deg": 133.8833,
      "mean_anomaly_deg": 226.2187,
      "mean_motion_rev_day": 15.7085602
    },
    {
      "epoch": "2026-03-30T02:33:12.168576Z",
      "apogee_km": 357.69584571878295,
      "perigee_km": 355.2027018802228,
      "latitude_deg": 2.2105913657173402e-05,
      "longitude_deg": 164.56983228816105,
      "height_km": 357.08292504747857,
      "semi_major_axis_km": 6734.586273799503,
      "eccentricity": 0.0001851,
      "inclination_deg": 43.0,
      "raan_deg": 30.3734,
      "arg_perigee_deg": 133.8833,
      "mean_anomaly_deg": 226.2188,
      "mean_motion_rev_day": 15.7085602
    },
    {
      "epoch": "2026-03-30T13:14:07.091808Z",
      "apogee_km": 359.20309228184124,
      "perigee_km": 353.0020697908303,
      "latitude_deg": -1.7313380358044613e-05,
      "longitude_deg": 1.2201529735394845,
      "height_km": 355.7874325864319,
      "semi_major_axis_km": 6734.239581036335,
      "eccentricity": 0.00046041,
      "inclination_deg": 42.9999,
      "raan_deg": 27.6913,
      "arg_perigee_deg": 271.6552,
      "mean_anomaly_deg": 88.3788,
      "mean_motion_rev_day": 15.70977328
    },
    {
      "epoch": "2026-03-30T22:23:28.973472Z",
      "apogee_km": 359.261940717327,
      "perigee_km": 353.53516106627103,
      "latitude_deg": -2.913180871141263e-05,
      "longitude_deg": -138.7964595600995,
      "height_km": 355.59153103646844,
      "semi_major_axis_km": 6734.535550891799,
      "eccentricity": 0.00042518,
      "inclination_deg": 42.9997,
      "raan_deg": 25.3919,
      "arg_perigee_deg": 281.7131,
      "mean_anomaly_deg": 78.3259,
      "mean_motion_rev_day": 15.70873767
    },
    {
      "epoch": "2026-03-31T19:45:19.805760Z",
      "apogee_km": 357.6141105137549,
      "perigee_km": 355.1815965246633,
      "latitude_deg": 1.8838894233159023e-05,
      "longitude_deg": -105.50210160878879,
      "height_km": 356.43666012332545,
      "semi_major_axis_km": 6734.534853519209,
      "eccentricity": 0.0001806,
      "inclination_deg": 43.0008,
      "raan_deg": 20.0254,
      "arg_perigee_deg": 257.3661,
      "mean_anomaly_deg": 102.7005,
      "mean_motion_rev_day": 15.70874011
    },
    {
      "epoch": "2026-04-01T20:10:15.991104Z",
      "apogee_km": 358.4254159033999,
      "perigee_km": 353.67915929350056,
      "latitude_deg": -7.470855058207676e-06,
      "longitude_deg": -118.87104732945465,
      "height_km": 355.90582868162386,
      "semi_major_axis_km": 6734.18928759845,
      "eccentricity": 0.0003524,
      "inclination_deg": 43.0027,
      "raan_deg": 13.8933,
      "arg_perigee_deg": 268.0838,
      "mean_anomaly_deg": 91.9626,
      "mean_motion_rev_day": 15.70994927
    },
    {
      "epoch": "2026-04-02T19:03:39.413952Z",
      "apogee_km": 357.4000364754738,
      "perigee_km": 354.3077878486092,
      "latitude_deg": 3.458898029606747e-05,
      "longitude_deg": -108.90684924229245,
      "height_km": 355.81136773678077,
      "semi_major_axis_km": 6733.990912162041,
      "eccentricity": 0.0002296,
      "inclination_deg": 43.001,
      "raan_deg": 8.1451,
      "arg_perigee_deg": 263.1552,
      "mean_anomaly_deg": 96.9055,
      "mean_motion_rev_day": 15.71064347
    },
    {
      "epoch": "2026-04-02T19:03:39.414816Z",
      "apogee_km": 357.4000364754738,
      "perigee_km": 354.3077878486092,
      "latitude_deg": 3.458898029591713e-05,
      "longitude_deg": -108.9068528521495,
      "height_km": 355.8113677367818,
      "semi_major_axis_km": 6733.990912162041,
      "eccentricity": 0.0002296,
      "inclination_deg": 43.001,
      "raan_deg": 8.1451,
      "arg_perigee_deg": 263.1552,
      "mean_anomaly_deg": 96.9055,
      "mean_motion_rev_day": 15.71064347
    },
    {
      "epoch": "2026-04-03T19:28:37.724736Z",
      "apogee_km": 358.5360794433145,
      "perigee_km": 354.01594143070815,
      "latitude_deg": 3.810970960693671e-05,
      "longitude_deg": -122.28444460540254,
      "height_km": 355.4572682275085,
      "semi_major_axis_km": 6734.413010437011,
      "eccentricity": 0.0003356,
      "inclination_deg": 43.0023,
      "raan_deg": 2.0132,
      "arg_perigee_deg": 285.2069,
      "mean_anomaly_deg": 74.8428,
      "mean_motion_rev_day": 15.70916643
    },
    {
      "epoch": "2026-04-04T18:22:00.598944Z",
      "apogee_km": 356.96263267025915,
      "perigee_km": 355.17672105955535,
      "latitude_deg": 7.10113018753802e-07,
      "longitude_deg": -112.318940478006,
      "height_km": 355.9578207734849,
      "semi_major_axis_km": 6734.206676864907,
      "eccentricity": 0.0001326,
      "inclination_deg": 42.9991,
      "raan_deg": 356.2641,
      "arg_perigee_deg": 262.5422,
      "mean_anomaly_deg": 97.5295,
      "mean_motion_rev_day": 15.70988842
    },
    {
      "epoch": "2026-04-05T09:37:37.850592Z",
      "apogee_km": 356.9274578812574,
      "perigee_km": 355.90851971145185,
      "latitude_deg": 1.3105777151054087e-05,
      "longitude_deg": 14.315936388827554,
      "height_km": 355.92184812589045,
      "semi_major_axis_km": 6734.554988796354,
      "eccentricity": 7.565e-05,
      "inclination_deg": 42.9999,
      "raan_deg": 352.4309,
      "arg_perigee_deg": 301.7307,
      "mean_anomaly_deg": 58.3487,
      "mean_motion_rev_day": 15.70866966
    },
    {
      "epoch": "2026-04-05T17:15:25.128576Z",
      "apogee_km": 357.2830346484443,
      "perigee_km": 355.22635142539093,
      "latitude_deg": 1.6675685573597328e-05,
      "longitude_deg": -102.3603967013387,
      "height_km": 355.8314760385402,
      "semi_major_axis_km": 6734.391693036918,
      "eccentricity": 0.0001527,
      "inclination_deg": 42.9979,
      "raan_deg": 350.5149,
      "arg_perigee_deg": 280.9608,
      "mean_anomaly_deg": 79.1088,
      "mean_motion_rev_day": 15.70924102
    },
    {
      "epoch": "2026-04-06T02:24:47.151936Z",
      "apogee_km": 357.37757966656136,
      "perigee_km": 355.5805147205283,
      "latitude_deg": 3.740811244148417e-06,
      "longitude_deg": 117.62389636358283,
      "height_km": 356.3034383711024,
      "semi_major_axis_km": 6734.616047193545,
      "eccentricity": 0.00013342,
      "inclination_deg": 42.9984,
      "raan_deg": 348.217,
      "arg_perigee_deg": 266.6701,
      "mean_anomaly_deg": 93.4014,
      "mean_motion_rev_day": 15.70845603
    },
    {
      "epoch": "2026-04-07T15:02:13.125120Z",
      "apogee_km": 357.70613680640326,
      "perigee_km": 355.04735078035355,
      "latitude_deg": -4.3897106996098664e-05,
      "longitude_deg": -82.43836946895635,
      "height_km": 356.28691561029063,
      "semi_major_axis_km": 6734.513743793378,
      "eccentricity": 0.0001974,
      "inclination_deg": 43.0002,
      "raan_deg": 339.0171,
      "arg_perigee_deg": 264.073,
      "mean_anomaly_deg": 95.9912,
      "mean_motion_rev_day": 15.70881397
    },
    {
      "epoch": "2026-04-08T01:43:08.332608Z",
      "apogee_km": 357.61845702538267,
      "perigee_km": 355.22486018694144,
      "latitude_deg": 2.391979813061569e-05,
      "longitude_deg": 114.21057609307455,
      "height_km": 356.4482206836179,
      "semi_major_axis_km": 6734.558658606162,
      "eccentricity": 0.00017771,
      "inclination_deg": 43.0007,
      "raan_deg": 336.3347,
      "arg_perigee_deg": 257.7563,
      "mean_anomaly_deg": 102.3106,
      "mean_motion_rev_day": 15.70865682
    },
    {
      "epoch": "2026-04-09T14:20:34.150272Z",
      "apogee_km": 357.75817192963586,
      "perigee_km": 355.0077939685998,
      "latitude_deg": -2.244644957147762e-05,
      "longitude_deg": -85.84953914438186,
      "height_km": 356.2613727255334,
      "semi_major_axis_km": 6734.519982949118,
      "eccentricity": 0.0002042,
      "inclination_deg": 43.0007,
      "raan_deg": 327.1363,
      "arg_perigee_deg": 265.6052,
      "mean_anomaly_deg": 94.4582,
      "mean_motion_rev_day": 15.70879214
    },
    {
      "epoch": "2026-04-09T23:29:55.258656Z",
      "apogee_km": 358.8112541616274,
      "perigee_km": 354.0511266732765,
      "latitude_deg": 1.3563771713796079e-05,
      "longitude_deg": 134.1372285942628,
      "height_km": 356.61674018574814,
      "semi_major_axis_km": 6734.568190417452,
      "eccentricity": 0.00035341,
      "inclination_deg": 43.0004,
      "raan_deg": 324.837,
      "arg_perigee_deg": 260.0394,
      "mean_anomaly_deg": 100.0075,
      "mean_motion_rev_day": 15.70862347
    }
  ]
}